[{"OBJECT_NAME":"STARLINK-35021","OBJECT_ID":"2025-184K","EPOCH":"2026-03-09T16:21:06.526656","MEAN_MOTION":15.05632974,"ECCENTRICITY":0.00010913,"INCLINATION":97.6031,"RA_OF_ASC_NODE":122.7142,"ARG_OF_PERICENTER":123.6007,"MEAN_ANOMALY":236.5324,"EPHEMERIS_TYPE":0,"CLASSIFICATION_TYPE":"U","NORAD_CAT_ID":65282,"ELEMENT_SET_NO":999,"REV_AT_EPOCH":3125,"BSTAR":0.00049768194,"MEAN_MOTION_DOT":7.124e-5,"MEAN_MOTION_DDOT":0},{"OBJECT_NAME":"CZ-6A DEB","OBJECT_ID":"2024-140DW","EPOCH":"2026-03-09T12:42:27.831456","MEAN_MOTION":14.74987574,"ECCENTRICITY":0.01550337,"INCLINATION":88.9082,"RA_OF_ASC_NODE":275.4322,"ARG_OF_PERICENTER":135.579,"MEAN_ANOMALY":225.799,"EPHEMERIS_TYPE":0,"CLASSIFICATION_TYPE":"U","NORAD_CAT_ID":60717,"ELEMENT_SET_NO":999,"REV_AT_EPOCH":8391,"BSTAR":0.0030954876,"MEAN_MOTION_DOT":0.00025382,"MEAN_MOTION_DDOT":0}]
